start=new Date('2022-03-17T00:00:00.000Z').valueOf();
sats=[{"ELEMENT_SET_NO":"999","EPHEMERIS_TYPE":"0","APOAPSIS":"548.488","GP_ID":"198892788","FILE":"3361778","BSTAR":"-0.00024449000000","CENTER_NAME":"EARTH","REV_AT_EPOCH":"8594","RCS_SIZE":"LARGE","SITE":"AFETR","RA_OF_ASC_NODE":"19.4436","INCLINATION":"53.0556","NORAD_CAT_ID":"46347","MEAN_ANOMALY":"310.4869","PERIOD":"95.593","LAUNCH_DATE":"2020-09-03","DECAY_DATE":null,"OBJECT_TYPE":"PAYLOAD","OBJECT_NAME":"STARLINK-1547","COUNTRY_CODE":"US","TLE_LINE2":"2 46347  53.0556  19.4436 0001774  49.6275 310.4869 15.06385168 85949","MEAN_MOTION":"15.06385168","TLE_LINE1":"1 46347U 20062Y   22075.56088234 -.00003920  00000-0 -24449-3 0  9998","CLASSIFICATION_TYPE":"U","REF_FRAME":"TEME","MEAN_ELEMENT_THEORY":"SGP4","MEAN_MOTION_DDOT":"0.0000000000000","PERIAPSIS":"546.030","EPOCH":"2022-03-16T13:27:40.234176","ARG_OF_PERICENTER":"49.6275","ECCENTRICITY":"0.00017740","TIME_SYSTEM":"UTC","MEAN_MOTION_DOT":"-0.00003920","SEMIMAJOR_AXIS":"6925.394","OBJECT_ID":"2020-062Y"},{"EPOCH":"2022-03-16T14:30:43.909632","PERIAPSIS":"546.080","MEAN_MOTION_DDOT":"0.0000000000000","MEAN_ELEMENT_THEORY":"SGP4","REF_FRAME":"TEME","TLE_LINE1":"1 46348U 20062Z   22075.60467488 -.00001982  00000-0 -11428-3 0  9995","CLASSIFICATION_TYPE":"U","MEAN_MOTION":"15.06372140","TLE_LINE2":"2 46348  53.0546  44.2469 0001760  51.0909 309.0236 15.06372140 85428","COUNTRY_CODE":"US","OBJECT_NAME":"STARLINK-1553","OBJECT_TYPE":"PAYLOAD","OBJECT_ID":"2020-062Z","SEMIMAJOR_AXIS":"6925.434","MEAN_MOTION_DOT":"-0.00001982","ECCENTRICITY":"0.00017600","ARG_OF_PERICENTER":"51.0909","TIME_SYSTEM":"UTC","CENTER_NAME":"EARTH","FILE":"3362094","BSTAR":"-0.00011428000000","GP_ID":"198921175","APOAPSIS":"548.518","EPHEMERIS_TYPE":"0","ELEMENT_SET_NO":"999","DECAY_DATE":null,"PERIOD":"95.594","LAUNCH_DATE":"2020-09-03","MEAN_ANOMALY":"309.0236","INCLINATION":"53.0546","NORAD_CAT_ID":"46348","RA_OF_ASC_NODE":"44.2469","SITE":"AFETR","RCS_SIZE":"LARGE","REV_AT_EPOCH":"8542"},{"CENTER_NAME":"EARTH","EPHEMERIS_TYPE":"0","ELEMENT_SET_NO":"999","FILE":"3362094","BSTAR":"-0.00010923000000","GP_ID":"198919662","APOAPSIS":"548.523","NORAD_CAT_ID":"46349","INCLINATION":"53.0568","RA_OF_ASC_NODE":"18.6833","SITE":"AFETR","DECAY_DATE":null,"PERIOD":"95.593","LAUNCH_DATE":"2020-09-03","MEAN_ANOMALY":"307.6993","REV_AT_EPOCH":"8579","RCS_SIZE":"LARGE","REF_FRAME":"TEME","CLASSIFICATION_TYPE":"U","TLE_LINE1":"1 46349U 20062AA  22075.73412751 -.00001908  00000-0 -10923-3 0  9990","MEAN_MOTION":"15.06387094","EPOCH":"2022-03-16T17:37:08.616864","PERIAPSIS":"545.983","MEAN_MOTION_DDOT":"0.0000000000000","MEAN_ELEMENT_THEORY":"SGP4","TLE_LINE2":"2 46349  53.0568  18.6833 0001834  52.4163 307.6993 15.06387094 85790","COUNTRY_CODE":"US","OBJECT_NAME":"STARLINK-1575","OBJECT_TYPE":"PAYLOAD","OBJECT_ID":"2020-062AA","MEAN_MOTION_DOT":"-0.00001908","ARG_OF_PERICENTER":"52.4163","ECCENTRICITY":"0.00018340","TIME_SYSTEM":"UTC","SEMIMAJOR_AXIS":"6925.388"},{"REF_FRAME":"TEME","TLE_LINE1":"1 46350U 20062AB  22075.36691753 -.00003904  00000-0 -24353-3 0  9992","CLASSIFICATION_TYPE":"U","MEAN_MOTION":"15.06368231","EPOCH":"2022-03-16T08:48:21.674592","PERIAPSIS":"546.051","MEAN_MOTION_DDOT":"0.0000000000000","MEAN_ELEMENT_THEORY":"SGP4","TLE_LINE2":"2 46350  53.0554  65.3336 0001819  48.0833 312.0311 15.06368231 85114","COUNTRY_CODE":"US","OBJECT_TYPE":"PAYLOAD","OBJECT_NAME":"STARLINK-1617","OBJECT_ID":"2020-062AB","MEAN_MOTION_DOT":"-0.00003904","ARG_OF_PERICENTER":"48.0833","ECCENTRICITY":"0.00018190","TIME_SYSTEM":"UTC","SEMIMAJOR_AXIS":"6925.446","CENTER_NAME":"EARTH","EPHEMERIS_TYPE":"0","ELEMENT_SET_NO":"999","BSTAR":"-0.00024353000000","FILE":"3361689","GP_ID":"198887770","APOAPSIS":"548.571","NORAD_CAT_ID":"46350","INCLINATION":"53.0554","RA_OF_ASC_NODE":"65.3336","SITE":"AFETR","DECAY_DATE":null,"LAUNCH_DATE":"2020-09-03","PERIOD":"95.594","MEAN_ANOMALY":"312.0311","REV_AT_EPOCH":"8511","RCS_SIZE":"LARGE"},{"TLE_LINE2":"2 46351  53.0544  44.0998 0001685  50.5923 309.5215 15.06377393 85439","COUNTRY_CODE":"US","OBJECT_NAME":"STARLINK-1646","OBJECT_TYPE":"PAYLOAD","REF_FRAME":"TEME","CLASSIFICATION_TYPE":"U","TLE_LINE1":"1 46351U 20062AC  22075.63785423  .00000859  00000-0  76622-4 0  9992","MEAN_MOTION":"15.06377393","EPOCH":"2022-03-16T15:18:30.605472","PERIAPSIS":"546.116","MEAN_MOTION_DDOT":"0.0000000000000","MEAN_ELEMENT_THEORY":"SGP4","MEAN_MOTION_DOT":"0.00000859","ARG_OF_PERICENTER":"50.5923","TIME_SYSTEM":"UTC","ECCENTRICITY":"0.00016850","SEMIMAJOR_AXIS":"6925.418","OBJECT_ID":"2020-062AC","EPHEMERIS_TYPE":"0","ELEMENT_SET_NO":"999","BSTAR":"0.00007662200000","FILE":"3362094","GP_ID":"198921072","APOAPSIS":"548.450","CENTER_NAME":"EARTH","REV_AT_EPOCH":"8543","RCS_SIZE":"LARGE","NORAD_CAT_ID":"46351","INCLINATION":"53.0544","RA_OF_ASC_NODE":"44.0998","SITE":"AFETR","DECAY_DATE":null,"LAUNCH_DATE":"2020-09-03","PERIOD":"95.594","MEAN_ANOMALY":"309.5215"},{"OBJECT_ID":"2020-062AD","SEMIMAJOR_AXIS":"6925.444","ARG_OF_PERICENTER":"60.2367","TIME_SYSTEM":"UTC","ECCENTRICITY":"0.00016620","MEAN_MOTION_DOT":"0.00000131","PERIAPSIS":"546.158","EPOCH":"2022-03-16T08:29:48.446016","MEAN_MOTION_DDOT":"0.0000000000000","MEAN_ELEMENT_THEORY":"SGP4","CLASSIFICATION_TYPE":"U","TLE_LINE1":"1 46352U 20062AD  22075.35403294  .00000131  00000-0  27685-4 0  9993","REF_FRAME":"TEME","MEAN_MOTION":"15.06368861","COUNTRY_CODE":"US","TLE_LINE2":"2 46352  53.0557  45.3768 0001662  60.2367 299.8787 15.06368861 85398","OBJECT_TYPE":"PAYLOAD","OBJECT_NAME":"STARLINK-1653","DECAY_DATE":null,"MEAN_ANOMALY":"299.8787","LAUNCH_DATE":"2020-09-03","PERIOD":"95.594","INCLINATION":"53.0557","NORAD_CAT_ID":"46352","SITE":"AFETR","RA_OF_ASC_NODE":"45.3768","RCS_SIZE":"LARGE","REV_AT_EPOCH":"8539","CENTER_NAME":"EARTH","GP_ID":"198889271","FILE":"3361689","BSTAR":"0.00002768500000","APOAPSIS":"548.460","ELEMENT_SET_NO":"999","EPHEMERIS_TYPE":"0"},{"OBJECT_ID":"2020-062AE","SEMIMAJOR_AXIS":"6925.428","MEAN_MOTION_DOT":"-0.00002154","ECCENTRICITY":"0.00017500","ARG_OF_PERICENTER":"58.8405","TIME_SYSTEM":"UTC","MEAN_ELEMENT_THEORY":"SGP4","MEAN_MOTION_DDOT":"0.0000000000000","EPOCH":"2022-03-16T16:24:51.691968","PERIAPSIS":"546.081","MEAN_MOTION":"15.06374187","REF_FRAME":"TEME","TLE_LINE1":"1 46353U 20062AE  22075.68393162 -.00002154  00000-0 -12586-3 0  9994","CLASSIFICATION_TYPE":"U","OBJECT_NAME":"STARLINK-1656","OBJECT_TYPE":"PAYLOAD","TLE_LINE2":"2 46353  53.0557  63.9102 0001750  58.8405 301.2755 15.06374187 85156","COUNTRY_CODE":"US","LAUNCH_DATE":"2020-09-03","PERIOD":"95.594","MEAN_ANOMALY":"301.2755","DECAY_DATE":null,"RA_OF_ASC_NODE":"63.9102","SITE":"AFETR","NORAD_CAT_ID":"46353","INCLINATION":"53.0557","RCS_SIZE":"LARGE","REV_AT_EPOCH":"8515","CENTER_NAME":"EARTH","APOAPSIS":"548.505","FILE":"3362094","BSTAR":"-0.00012586000000","GP_ID":"198920162","EPHEMERIS_TYPE":"0","ELEMENT_SET_NO":"999"},{"COUNTRY_CODE":"US","TLE_LINE2":"2 46354  53.0534  64.8352 0001661  49.9767 310.1368 15.06366595 85122","OBJECT_NAME":"STARLINK-1657","OBJECT_TYPE":"PAYLOAD","TLE_LINE1":"1 46354U 20062AF  22075.47381378 -.00007529  00000-0 -48749-3 0  9999","CLASSIFICATION_TYPE":"U","REF_FRAME":"TEME","MEAN_MOTION":"15.06366595","PERIAPSIS":"546.166","EPOCH":"2022-03-16T11:22:17.510592","MEAN_MOTION_DDOT":"0.0000000000000","MEAN_ELEMENT_THEORY":"SGP4","ECCENTRICITY":"0.00016610","ARG_OF_PERICENTER":"49.9767","TIME_SYSTEM":"UTC","MEAN_MOTION_DOT":"-0.00007529","SEMIMAJOR_AXIS":"6925.451","OBJECT_ID":"2020-062AF","ELEMENT_SET_NO":"999","EPHEMERIS_TYPE":"0","GP_ID":"198888270","FILE":"3361689","BSTAR":"-0.00048749000000","APOAPSIS":"548.466","CENTER_NAME":"EARTH","REV_AT_EPOCH":"8512","RCS_SIZE":"LARGE","NORAD_CAT_ID":"46354","INCLINATION":"53.0534","SITE":"AFETR","RA_OF_ASC_NODE":"64.8352","DECAY_DATE":null,"MEAN_ANOMALY":"310.1368","LAUNCH_DATE":"2020-09-03","PERIOD":"95.594"},{"PERIOD":"95.594","LAUNCH_DATE":"2020-09-03","MEAN_ANOMALY":"301.7272","DECAY_DATE":null,"RA_OF_ASC_NODE":"65.2607","SITE":"AFETR","INCLINATION":"53.0552","NORAD_CAT_ID":"46355","RCS_SIZE":"LARGE","REV_AT_EPOCH":"8511","CENTER_NAME":"EARTH","APOAPSIS":"548.359","FILE":"3361689","BSTAR":"-0.00018649000000","GP_ID":"198888520","EPHEMERIS_TYPE":"0","ELEMENT_SET_NO":"999","OBJECT_ID":"2020-062AG","SEMIMAJOR_AXIS":"6925.417","MEAN_MOTION_DOT":"-0.00003056","TIME_SYSTEM":"UTC","ARG_OF_PERICENTER":"58.3869","ECCENTRICITY":"0.00015550","MEAN_MOTION_DDOT":"0.0000000000000","MEAN_ELEMENT_THEORY":"SGP4","EPOCH":"2022-03-16T09:09:36.159264","PERIAPSIS":"546.205","MEAN_MOTION":"15.06377602","REF_FRAME":"TEME","CLASSIFICATION_TYPE":"U","TLE_LINE1":"1 46355U 20062AG  22075.38166851 -.00003056  00000-0 -18649-3 0  9994","OBJECT_TYPE":"PAYLOAD","OBJECT_NAME":"STARLINK-1661","TLE_LINE2":"2 46355  53.0552  65.2607 0001555  58.3869 301.7272 15.06377602 85110","COUNTRY_CODE":"US"},{"MEAN_ANOMALY":"300.1816","LAUNCH_DATE":"2020-09-03","PERIOD":"95.594","DECAY_DATE":null,"SITE":"AFETR","RA_OF_ASC_NODE":"64.0133","NORAD_CAT_ID":"46356","INCLINATION":"53.0529","RCS_SIZE":"LARGE","REV_AT_EPOCH":"8515","CENTER_NAME":"EARTH","APOAPSIS":"548.443","GP_ID":"198921176","BSTAR":"0.00006694900000","FILE":"3362094","ELEMENT_SET_NO":"999","EPHEMERIS_TYPE":"0","OBJECT_ID":"2020-062AH","SEMIMAJOR_AXIS":"6925.455","ECCENTRICITY":"0.00016220","ARG_OF_PERICENTER":"59.9334","TIME_SYSTEM":"UTC","MEAN_MOTION_DOT":"0.00000715","MEAN_ELEMENT_THEORY":"SGP4","MEAN_MOTION_DDOT":"0.0000000000000","PERIAPSIS":"546.197","EPOCH":"2022-03-16T15:47:41.230176","MEAN_MOTION":"15.06365290","CLASSIFICATION_TYPE":"U","TLE_LINE1":"1 46356U 20062AH  22075.65811609  .00000715  00000-0  66949-4 0  9997","REF_FRAME":"TEME","OBJECT_TYPE":"PAYLOAD","OBJECT_NAME":"STARLINK-1665","COUNTRY_CODE":"US","TLE_LINE2":"2 46356  53.0529  64.0133 0001622  59.9334 300.1816 15.06365290 85156"}];
